STARLINK-5790           
1 56036U 23042BC  23107.27415727  .00041924  00000+0  32124-3 0  9993
2 56036  43.0027  51.5471 0002151 263.8606  96.2017 15.71376505  3739
STARLINK-5758           
1 56037U 23042BD  23107.21048961  .00013404  00000+0  10544-3 0  9994
2 56037  43.0025  51.9264 0002102 249.6908 110.3734 15.71367937  3727
STARLINK-5793           
1 56038U 23042BE  23107.21070108  .00006997  00000+0  56739-4 0  9999
2 56038  43.0028  51.9318 0001401 256.9158 103.1554 15.71363870  3722
STARLINK-5795           
1 56039U 23042BF  23107.27394819  .00012727  00000+0  10031-3 0  9996
2 56039  43.0013  51.5438 0001264 242.2628 117.8111 15.71364929  3731
STARLINK-5798           
1 56040U 23042BG  23107.21028070  .00011622  00000+0  91920-4 0  9995
2 56040  43.0020  51.9272 0001784 247.8223 112.2455 15.71363151  3725
STARLINK-5800           
1 56041U 23042BH  23107.21014170  .00008059  00000+0  65020-4 0  9994
2 56041  43.0032  51.9258 0001270 304.9530  55.1219 15.71288572  3725
FALCON 9 DEB            
1 56042U 23042BJ  23107.23325074  .00762073  28252-3  12090-2 0  9998
2 56042  43.0101  48.5224 0024040 166.0600 194.0948 16.02349921  3760
FALCON 9 DEB            
1 56043U 23042BK  23107.22197602  .00823078  34099-3  11993-2 0  9992
2 56043  43.0042  48.4197 0022665 169.9544 190.1793 16.03827193  3761
FALCON 9 DEB            
1 56044U 23042BL  23107.20300731  .00797580  32519-3  10831-2 0  9993
2 56044  43.0038  48.2534 0020160 162.3201 197.8385 16.05080010  3767
FALCON 9 DEB            
1 56045U 23042BM  23107.20827793  .00711008  24844-3  10626-2 0  9991
2 56045  42.9984  48.2909 0020003 164.1317 196.0193 16.03518415  3767
ONEWEB-0537             
1 56046U 23043A   23107.58334491 -.01133591  00000+0 -44428-1 0  9990
2 56046  87.3213 134.6728 0014573 179.1466 281.6775 15.28697680  1304
ONEWEB-0538             
1 56047U 23043B   23107.58334491 -.01132486  00000+0 -43992-1 0  9998
2 56047  87.3245 134.6756 0014394 178.1446 295.0932 15.28986827  1307
ONEWEB-0546             
1 56048U 23043C   23107.58334491 -.01141685  00000+0 -44004-1 0  9995
2 56048  87.3226 134.6677 0013983 175.3545 314.5752 15.29272263  1301
ONEWEB-0547             
1 56049U 23043D   23107.58334491 -.01289148  00000+0 -46855-1 0  9999
2 56049  87.3469 134.6650 0010773 168.0455  56.6589 15.31101427  1303
ONEWEB-0548             
1 56050U 23043E   23107.58334491 -.01135536  00000+0 -45829-1 0  9992
2 56050  87.3174 134.6794 0014502 182.7303 248.2316 15.27748465  1307
ONEWEB-0549             
1 56051U 23043F   23107.58334491 -.01294914  00000+0 -48077-1 0  9997
2 56051  87.3442 134.6710 0011902 168.1205  31.9698 15.30411718  1306
ONEWEB-0550             
1 56052U 23043G   23107.58334491 -.01292964  00000+0 -49206-1 0  9996
2 56052  87.3402 134.6699 0013087 169.0741 358.4375 15.29588979  1301
ONEWEB-0551             
1 56053U 23043H   23107.52493967  .00021766  00000+0  64698-3 0  9996
2 56053  87.4344 134.7685 0012081 195.3965 164.6921 15.34567943  3442
ONEWEB-0552             
1 56054U 23043J   23107.58334491 -.01292464  00000+0 -49695-1 0  9995
2 56054  87.3403 134.6761 0013799 173.5695 336.1309 15.29241965  1303
ONEWEB-0553             
1 56055U 23043K   23107.58334491 -.01131870  00000+0 -44024-1 0  9990
2 56055  87.3239 134.6757 0013932 176.4030 304.6437 15.28953058  1304
ONEWEB-0554             
1 56056U 23043L   23107.58334491 -.01152696  00000+0 -44255-1 0  9996
2 56056  87.3268 134.6740 0013529 173.6606 325.8229 15.29436331  1304
ONEWEB-0555             
1 56057U 23043M   23107.58334491 -.01062868  00000+0 -42017-1 0  9992
2 56057  87.3185 134.6751 0014194 183.8098 249.6607 15.28239377  1305
ONEWEB-0557             
1 56058U 23043N   23107.58334491 -.01159165  00000+0 -44217-1 0  9994
2 56058  87.3258 134.6687 0013553 173.4675 330.8274 15.29661415  1305
ONEWEB-0558             
1 56059U 23043P   23107.58334491 -.01263802  00000+0 -42598-1 0  9999
2 56059  87.3678 134.6725 0010678 168.4489  91.6756 15.33926771  1308
ONEWEB-0559             
1 56060U 23043Q   23107.58334491 -.01296708  00000+0 -47724-1 0  9998
2 56060  87.3457 134.6682 0011792 167.8753  39.5079 15.30698952  1305
ONEWEB-0566             
1 56061U 23043R   23107.58334491 -.01280776  00000+0 -48287-1 0  9992
2 56061  87.3424 134.6747 0012904 169.0764   3.7309 15.29868524  1305
ONEWEB-0568             
1 56062U 23043S   23107.58334491 -.01144125  00000+0 -47833-1 0  9996
2 56062  87.3117 134.6789 0012967 195.1206 167.7212 15.26644254  1304
ONEWEB-0574             
1 56063U 23043T   23107.58334491 -.01288394  00000+0 -46030-1 0  9992
2 56063  87.3473 134.6549 0010290 170.9397  72.6098 15.31657079  1304
ONEWEB-0575             
1 56064U 23043U   23107.58334491 -.01162174  00000+0 -48699-1 0  9993
2 56064  87.3116 134.6845 0013520 193.4477 180.8195 15.26606958  1300
ONEWEB-0576             
1 56065U 23043V   23107.58334491 -.01132912  00000+0 -46021-1 0  9998
2 56065  87.3185 134.6883 0014122 186.8198 224.8011 15.27536637  1307
ONEWEB-0577             
1 56066U 23043W   23107.58334491 -.01158347  00000+0 -40876-1 0  9991
2 56066  87.3599 134.6977 0014211 189.9423 272.0083 15.32141629  1308
ONEWEB-0578             
1 56067U 23043X   23107.58334491 -.01286470  00000+0 -47871-1 0  9993
2 56067  87.3433 134.6666 0012059 168.2908  27.7430 15.30318064  1305
ONEWEB-0579             
1 56068U 23043Y   23107.58334491 -.01288836  00000+0 -45542-1 0  9995
2 56068  87.3517 134.6648 0009806 173.8954  87.2246 15.32016551  1302
ONEWEB-0581             
1 56069U 23043Z   23107.58334491 -.01141102  00000+0 -46712-1 0  9990
2 56069  87.3151 134.6808 0014202 190.0196 205.6815 15.27304651  1303
ONEWEB-0609             
1 56070U 23043AA  23107.58334491 -.00660658  00000+0 -32485-1 0  9995
2 56070  87.4722 134.7585 0009821 169.4815 168.4019 15.20626738  1300
ONEWEB-0613             
1 56071U 23043AB  23107.58334491 -.01343179  00000+0 -70882-1 0  9996
2 56071  87.4741 134.7768 0013822 191.0597 348.2588 15.18779849  1307
ONEWEB-0630             
1 56072U 23043AC  23107.58334491 -.01352538  00000+0 -71732-1 0  9991
2 56072  87.4710 134.7719 0013858 186.0392   5.9543 15.18630454  1302
ONEWEB-0632             
1 56073U 23043AD  23107.58334491 -.01343472  00000+0 -71192-1 0  9999
2 56073  87.4748 134.7565 0008247 182.5927 134.1167 15.18725899  1309
ONEWEB-0633             
1 56074U 23043AE  23107.58334491 -.01401569  00000+0 -67705-1 0  9997
2 56074  87.4517 134.7415 0009193 174.1521 173.2233 15.22015201  1308
ONEWEB-0634             
1 56075U 23043AF  23107.58334491 -.01182845  00000+0 -57940-1 0  9991
2 56075  87.4673 134.7465 0009274 169.8021 164.2834 15.21018967  1301
ONEWEB-0635             
1 56076U 23043AG  23107.58334491 -.01338330  00000+0 -70832-1 0  9999
2 56076  87.4746 134.7842 0014551 183.6897  16.7461 15.18654158  1302
ONEWEB-0636             
1 56077U 23043AH  23107.58334491 -.01372991  00000+0 -74734-1 0  9996
2 56077  87.4799 134.7744 0012043 166.2280  86.0201 15.17814451  1304
ONEWEB-0637             
1 56078U 23043AJ  23107.58334491 -.01340827  00000+0 -69320-1 0  9995
2 56078  87.4693 134.7786 0011684 197.0585 322.8380 15.19517235  1305
ONEWEB-0647             
1 56079U 23043AK  23107.58334491 -.01369882  00000+0 -73097-1 0  9994
2 56079  87.4736 134.7673 0013302 168.5563  88.9343 15.18472234  1304
ONEWEB-0651             
1 56080U 23043AL  23107.58334491 -.01228506  00000+0 -62308-1 0  9996
2 56080  87.4687 134.7634 0014004 178.2391  72.0238 15.19863701  1306
ONEWEB-0718             
1 56081U 23043AM  23107.58334491 -.01349706  00000+0 -70021-1 0  9994
2 56081  87.4706 134.7604 0012254 169.9809 105.2139 15.19410431  1309
GSLV R/B                
1 56082U 23043AN  23107.57215925  .00026917  00000+0  70503-3 0  9994
2 56082  87.4156 134.7048 0021702 302.5254  57.3903 15.38327530  3450
COSMOS 2568             
1 56091U 23045A   23107.54622176  .00047080  00000+0  25870-3 0  9994
2 56091  96.4618 196.9808 0012031 220.1948 264.5347 15.79523586  2948
SL-4 R/B                
1 56092U 23045B   23107.24876196  .00144603  00000+0  67898-3 0  9990
2 56092  96.4612 196.7774 0014043 216.1330 143.8994 15.82639511  2912
STARLINK-6102           
1 56093U 23046A   23107.58334491 -.00865116  00000+0 -14953-1 0  9999
2 56093  42.9999 151.7317 0001557 280.5446  74.5748 15.52759533  1303
STARLINK-6109           
1 56094U 23046B   23107.58334491 -.00866244  00000+0 -14955-1 0  9995
2 56094  42.9996 151.7218 0001541 277.4767  81.2233 15.52795091  1296
STARLINK-6090           
1 56095U 23046C   23107.58334491 -.00865753  00000+0 -14956-1 0  9991
2 56095  43.0000 151.7290 0001542 276.9303  79.3486 15.52776259  1301
STARLINK-6089           
1 56096U 23046D   23107.58334491 -.00865977  00000+0 -14941-1 0  9994
2 56096  43.0001 151.7197 0001532 278.8985  80.9599 15.52811606  1292
STARLINK-6077           
1 56097U 23046E   23107.52143002  .00067652  00000+0  51525-3 0  9998
2 56097  42.9998 150.3257 0001131 283.4858  76.5884 15.71351530  2952
STARLINK-6088           
1 56098U 23046F   23107.58334491 -.00861282  00000+0 -14873-1 0  9995
2 56098  42.9997 151.7251 0001639 291.5273  66.0154 15.52772701  1291
STARLINK-6093           
1 56099U 23046G   23107.58334491 -.00867261  00000+0 -14947-1 0  9991
2 56099  43.0002 151.7150 0001519 273.2605  88.9132 15.52845144  1305
STARLINK-6076           
1 56100U 23046H   23107.58334491 -.00865697  00000+0 -14909-1 0  9993
2 56100  42.9992 151.7104 0001550 281.4985  81.8326 15.52860514  1305
STARLINK-6095           
1 56101U 23046J   23107.58334491 -.00865374  00000+0 -14894-1 0  9999
2 56101  43.0003 151.7092 0001545 281.6866  82.8010 15.52876936  1307
STARLINK-6075           
1 56102U 23046K   23107.58334491 -.00865598  00000+0 -14925-1 0  9993
2 56102  42.9997 151.7166 0001530 279.9697  81.0467 15.52827836  1308
